OBJECT_NAME,OBJECT_ID,EPOCH,MEAN_MOTION,ECCENTRICITY,INCLINATION,RA_OF_ASC_NODE,ARG_OF_PERICENTER,MEAN_ANOMALY,EPHEMERIS_TYPE,CLASSIFICATION_TYPE,NORAD_CAT_ID,ELEMENT_SET_NO,REV_AT_EPOCH,BSTAR,MEAN_MOTION_DOT,MEAN_MOTION_DDOT
IRIDIUM 156,2018-061H,2026-07-16T01:42:46.462176,14.34217799,.000211,86.3937,44.6465,92.7768,267.3669,0,U,43576,999,41751,.13054E-4,.56E-6,0
IRIDIUM 164,2018-061J,2026-07-16T02:55:50.544192,14.34218478,.000232,86.3938,44.6661,89.0798,271.0663,0,U,43577,999,41756,.3942E-4,.13E-5,0
IRIDIUM 159,2018-061K,2026-07-16T02:10:10.465824,14.34217521,.0002136,86.3935,44.6157,85.4019,274.7421,0,U,43578,999,41752,.9463E-5,.46E-6,0
IRIDIUM 180,2019-002A,2026-07-15T19:27:34.935264,14.34218511,.00022161,86.3993,341.6318,90.8839,269.2610,0,U,43922,999,39309,.31419926E-4,.108E-5,0
IRIDIUM 176,2019-002B,2026-07-15T21:49:35.750784,14.72249564,.0002334,86.6112,341.5300,90.1985,269.9500,0,U,43923,999,40347,.55958E-4,.377E-5,0
IRIDIUM 168,2019-002C,2026-07-15T22:39:22.972032,14.34216620,.0002114,86.3989,341.6542,91.4243,268.7195,0,U,43924,999,39309,-.13198E-4,-.17E-6,0
IRIDIUM 173,2019-002D,2026-07-15T22:21:06.999264,14.34216721,.0002132,86.3986,341.5475,93.6953,266.4487,0,U,43925,999,39307,-.32787E-4,-.72E-6,0
IRIDIUM 169,2019-002E,2026-07-15T23:29:22.399008,14.38613387,.0001925,86.4222,13.1522,104.3747,255.7665,0,U,43926,999,39436,.94096E-5,.49E-6,0
IRIDIUM 172,2019-002F,2026-07-16T03:13:23.029248,14.34217511,.0002191,86.3990,341.4702,90.9573,269.1874,0,U,43927,999,39311,.12676E-5,.23E-6,0
IRIDIUM 175,2019-002G,2026-07-16T04:19:11.752032,14.43627574,.0005355,86.4512,278.4025,113.3442,246.8323,0,U,43928,999,40316,.46496E-4,.178E-5,0
IRIDIUM 171,2019-002H,2026-07-15T21:44:34.968192,14.34217724,.0002239,86.4000,341.8749,95.1181,265.0271,0,U,43929,999,39307,.79405E-5,.42E-6,0
IRIDIUM 170,2019-002J,2026-07-15T21:58:28.801632,14.72250171,.0002253,86.6111,341.5296,86.7738,273.3737,0,U,43930,999,40348,.56445E-4,.381E-5,0
IRIDIUM 167,2019-002K,2026-07-15T21:35:26.954592,14.34217723,.0002308,86.3992,341.5910,98.4900,261.6557,0,U,43931,999,39307,.39707E-5,.31E-6,0
IRIDIUM 181,2023-068S,2026-07-15T12:45:21.585312,14.43312397,.00024121,86.4474,44.9372,83.4871,276.6605,0,U,56726,999,16652,.45155381E-4,.172E-5,0
IRIDIUM 177,2023-068T,2026-07-15T20:28:30.718848,14.80024364,.0002177,86.1986,315.1817,95.4912,264.6558,0,U,56727,999,17060,.69174E-4,.55E-5,0
IRIDIUM 174,2023-068U,2026-07-15T21:40:33.354912,14.72258769,.0001983,86.6120,341.6850,88.3147,271.8297,0,U,56728,999,17024,.57649E-4,.388E-5,0
IRIDIUM 178,2023-068V,2026-07-15T21:50:01.740768,14.80026522,.0002309,86.6536,13.3547,90.9107,269.2379,0,U,56729,999,17061,.20564E-4,.182E-5,0
IRIDIUM 179,2023-068W,2026-07-15T00:36:38.349504,14.80033495,.00023212,86.6767,22.7863,93.3552,266.7935,0,U,56730,999,17048,.14650918E-4,.137E-5,0
